[{"OBJECT_NAME":"GAOFEN-9 03","OBJECT_ID":"2020-039A","EPOCH":"2026-03-09T21:55:15.121344","MEAN_MOTION":15.30529116,"ECCENTRICITY":0.0013094,"INCLINATION":97.5219,"RA_OF_ASC_NODE":201.2158,"ARG_OF_PERICENTER":77.4533,"MEAN_ANOMALY":282.8172,"EPHEMERIS_TYPE":0,"CLASSIFICATION_TYPE":"U","NORAD_CAT_ID":45794,"ELEMENT_SET_NO":999,"REV_AT_EPOCH":31856,"BSTAR":0.00039258132,"MEAN_MOTION_DOT":0.00011544,"MEAN_MOTION_DDOT":0},{"OBJECT_NAME":"STARLINK-2034","OBJECT_ID":"2021-005D","EPOCH":"2026-03-09T05:41:37.102272","MEAN_MOTION":15.30193367,"ECCENTRICITY":0.00015383,"INCLINATION":53.1612,"RA_OF_ASC_NODE":54.8446,"ARG_OF_PERICENTER":121.4256,"MEAN_ANOMALY":238.6896,"EPHEMERIS_TYPE":0,"CLASSIFICATION_TYPE":"U","NORAD_CAT_ID":47352,"ELEMENT_SET_NO":999,"REV_AT_EPOCH":28310,"BSTAR":7.075321e-5,"MEAN_MOTION_DOT":1.736e-5,"MEAN_MOTION_DDOT":0}]
